NORAD_CAT_ID,OBJECT_NAME,OBJECT_TYPE,EPOCH,MEAN_MOTION,ECCENTRICITY,INCLINATION,RA_OF_ASC_NODE,ARG_OF_PERICENTER,MEAN_ANOMALY,BSTAR,MEAN_MOTION_DOT,MEAN_MOTION_DDOT,TLE_LINE0,TLE_LINE1,TLE_LINE2,SEMIMAJOR_AXIS,PERIOD,APOGEE,PERIGEE,DECAYED
54765.0,STARLINK-5466,PAYLOAD,2024-02-14 14:06:07,15.08838717,0.0001226,53.2157,189.5303,88.247,271.8662,4.0234e-05,3.53e-06,0.0,0 STARLINK-5466,1 54765U 22175H   24045.58758325  .00000353  00000-0  40234-4 0  9990,2 54765  53.2157 189.5303 0001226  88.2470 271.8662 15.08838717 66070,6917.884,95.438,540.597,538.901,0.0
54765.0,STARLINK-5466,PAYLOAD,2024-02-14 17:16:52,15.08850787,0.0001429,53.2172,188.9333,85.8876,274.2279,0.00014647,2.045e-05,0.0,0 STARLINK-5466,1 54765U 22175H   24045.72005280  .00002045  00000-0  14647-3 0  9999,2 54765  53.2172 188.9333 0001429  85.8876 274.2279 15.08850787 63946,6917.847,95.437,540.701,538.724,0.0
54765.0,STARLINK-5466,PAYLOAD,2024-02-15 02:49:12,15.08836265,0.0001476,53.2175,187.1497,82.5625,277.5535,4.6919e-05,4.59e-06,0.0,0 STARLINK-5466,1 54765U 22175H   24046.11750513  .00000459  00000-0  46919-4 0  9994,2 54765  53.2175 187.1497 0001476  82.5625 277.5535 15.08836265 64003,6917.892,95.438,540.778,538.736,0.0
54765.0,STARLINK-5466,PAYLOAD,2024-02-15 13:56:54,15.0883467,0.0001385,53.2179,185.0687,80.6163,279.4986,6.6972e-05,7.78e-06,0.0,0 STARLINK-5466,1 54765U 22175H   24046.58118649  .00000778  00000-0  66972-4 0  9998,2 54765  53.2179 185.0687 0001385  80.6163 279.4986 15.08834670 66225,6917.897,95.438,540.72,538.804,0.0
54765.0,STARLINK-5466,PAYLOAD,2024-02-15 18:43:03,15.08847242,0.0001344,53.2179,184.1738,101.5271,258.5872,3.2137e-05,2.24e-06,0.0,0 STARLINK-5466,1 54765U 22175H   24046.77989911  .00000224  00000-0  32137-4 0  9999,2 54765  53.2179 184.1738 0001344 101.5271 258.5872 15.08847242 64106,6917.858,95.437,540.653,538.793,0.0
54765.0,STARLINK-5466,PAYLOAD,2024-02-16 12:12:18,15.08837253,0.0001329,53.2178,180.9052,90.5272,269.5872,8.9627e-05,1.139e-05,0.0,0 STARLINK-5466,1 54765U 22175H   24047.50854420  .00001139  00000-0  89627-4 0  9999,2 54765  53.2178 180.9052 0001329  90.5272 269.5872 15.08837253 64214,6917.889,95.438,540.673,538.834,0.0
54765.0,STARLINK-5466,PAYLOAD,2024-02-16 15:23:04,15.08843889,0.0001271,53.2161,180.3112,89.495,270.6188,9.2708e-05,1.188e-05,0.0,0 STARLINK-5466,1 54765U 22175H   24047.64101911  .00001188  00000-0  92708-4 0  9992,2 54765  53.2161 180.3112 0001271  89.4950 270.6188 15.08843889 66388,6917.869,95.437,540.613,538.854,0.0
54765.0,STARLINK-5466,PAYLOAD,2024-02-17 12:03:05,15.08834107,0.0001352,53.2187,176.442,96.2639,263.8507,9.5421e-06,-1.36e-06,0.0,0 STARLINK-5466,1 54765U 22175H   24048.50214963 -.00000136  00000-0  95421-5 0  9999,2 54765  53.2187 176.4420 0001352  96.2639 263.8507 15.08834107 64362,6917.898,95.438,540.699,538.828,0.0
54765.0,STARLINK-5466,PAYLOAD,2024-02-17 13:38:28,15.08834659,0.0001356,53.2163,176.145,86.1986,273.9161,6.756e-06,-1.8e-06,0.0,0 STARLINK-5466,1 54765U 22175H   24048.56838992 -.00000180  00000-0  67560-5 0  9991,2 54765  53.2163 176.1450 0001356  86.1986 273.9161 15.08834659 66523,6917.897,95.438,540.7,538.824,0.0
54765.0,STARLINK-5466,PAYLOAD,2024-02-17 15:13:51,15.08836414,0.0001411,53.2164,175.8469,87.743,272.3724,1.282e-05,-8.4e-07,0.0,0 STARLINK-5466,1 54765U 22175H   24048.63462877 -.00000084  00000-0  12820-4 0  9995,2 54765  53.2164 175.8469 0001411  87.7430 272.3724 15.08836414 66533,6917.891,95.438,540.732,538.78,0.0
54765.0,STARLINK-5466,PAYLOAD,2024-02-18 11:53:52,15.08842172,0.0001415,53.2175,171.9858,83.2611,276.8542,5.6547e-05,6.12e-06,0.0,0 STARLINK-5466,1 54765U 22175H   24049.49574636  .00000612  00000-0  56547-4 0  9997,2 54765  53.2175 171.9858 0001415  83.2611 276.8542 15.08842172 64511,6917.874,95.437,540.718,538.76,0.0
54765.0,STARLINK-5466,PAYLOAD,2024-02-18 15:04:38,15.08848808,0.0001406,53.217,171.3903,84.0512,276.064,0.00011505,1.544e-05,0.0,0 STARLINK-5466,1 54765U 22175H   24049.62822010  .00001544  00000-0  11505-3 0  9993,2 54765  53.2170 171.3903 0001406  84.0512 276.0640 15.08848808 66683,6917.853,95.437,540.691,538.746,0.0
54765.0,STARLINK-5466,PAYLOAD,2024-02-19 11:44:40,15.08833481,0.0001419,53.2176,167.526,92.6775,267.4379,7.5642e-06,-1.68e-06,0.0,0 STARLINK-5466,1 54765U 22175H   24050.48935569 -.00000168  00000-0  75642-5 0  9999,2 54765  53.2176 167.5260 0001419  92.6775 267.4379 15.08833481 64662,6917.9,95.438,540.747,538.784,0.0
54765.0,STARLINK-5466,PAYLOAD,2024-02-19 14:55:26,15.08837211,0.0001431,53.2174,166.9321,96.8769,263.2386,6.3038e-05,7.15e-06,0.0,0 STARLINK-5466,1 54765U 22175H   24050.62183234  .00000715  00000-0  63038-4 0  9991,2 54765  53.2174 166.9321 0001431  96.8769 263.2386 15.08837211 66832,6917.889,95.438,540.744,538.764,0.0
54765.0,STARLINK-5466,PAYLOAD,2024-02-20 14:46:13,15.08841889,0.0001473,53.217,162.4718,97.8974,262.2185,-6.9723e-06,-3.99e-06,0.0,0 STARLINK-5466,1 54765U 22175H   24051.61543478 -.00000399  00000-0 -69723-5 0  9999,2 54765  53.2170 162.4718 0001473  97.8974 262.2185 15.08841889 66982,6917.875,95.437,540.759,538.721,0.0
54765.0,STARLINK-5466,PAYLOAD,2024-02-21 14:36:59,15.08851308,0.0001571,53.2172,158.0065,82.9055,277.2116,0.00014613,2.039e-05,0.0,0 STARLINK-5466,1 54765U 22175H   24052.60902603  .00002039  00000-0  14613-3 0  9995,2 54765  53.2172 158.0065 0001571  82.9055 277.2116 15.08851308 67139,6917.846,95.437,540.798,538.624,0.0
54765.0,STARLINK-5466,PAYLOAD,2024-02-22 12:52:24,15.08841467,0.0001455,53.217,153.847,85.4146,274.7012,2.9805e-05,1.86e-06,0.0,0 STARLINK-5466,1 54765U 22175H   24053.53639642  .00000186  00000-0  29805-4 0  9999,2 54765  53.2170 153.8470 0001455  85.4146 274.7012 15.08841467 65129,6917.876,95.437,540.747,538.734,0.0
54765.0,STARLINK-5466,PAYLOAD,2024-02-23 12:43:10,15.08855425,0.0001657,53.2168,149.3855,84.54,275.5781,-1.1602e-05,-4.73e-06,0.0,0 STARLINK-5466,1 54765U 22175H   24054.52998688 -.00000473  00000-0 -11602-4 0  9994,2 54765  53.2168 149.3855 0001657  84.5400 275.5781 15.08855425 65277,6917.833,95.437,540.845,538.552,0.0
54765.0,STARLINK-5466,PAYLOAD,2024-02-23 23:50:52,15.08848054,0.0001521,53.2162,147.303,85.2242,274.8924,-5.3042e-05,-1.132e-05,0.0,0 STARLINK-5466,1 54765U 22175H   24054.99366895 -.00001132  00000-0 -53042-4 0  9991,2 54765  53.2162 147.3030 0001521  85.2242 274.8924 15.08848054 65345,6917.856,95.437,540.773,538.669,0.0
54765.0,STARLINK-5466,PAYLOAD,2024-02-24 12:33:59,15.08834355,0.0001594,53.2161,144.9253,91.4294,268.6881,6.0846e-06,-1.91e-06,0.0,0 STARLINK-5466,1 54765U 22175H   24055.52359980 -.00000191  00000-0  60846-5 0  9992,2 54765  53.2161 144.9253 0001594  91.4294 268.6881 15.08834355 65421,6917.898,95.438,540.865,538.66,0.0
54765.0,STARLINK-5466,PAYLOAD,2024-02-24 15:44:45,15.08836752,0.000168,53.2153,144.3292,92.4769,267.6415,2.0294e-05,3.5e-07,0.0,0 STARLINK-5466,1 54765U 22175H   24055.65607826  .00000035  00000-0  20294-4 0  9999,2 54765  53.2153 144.3292 0001680  92.4769 267.6415 15.08836752 67598,6917.89,95.438,540.918,538.593,0.0
54765.0,STARLINK-5466,PAYLOAD,2024-02-25 12:24:45,15.08849305,0.0001526,53.216,140.4637,89.8512,270.2655,6.2211e-05,7.02e-06,0.0,0 STARLINK-5466,1 54765U 22175H   24056.51719011  .00000702  00000-0  62211-4 0  9991,2 54765  53.2160 140.4637 0001526  89.8512 270.2655 15.08849305 65571,6917.852,95.437,540.773,538.661,0.0
54765.0,STARLINK-5466,PAYLOAD,2024-02-25 15:35:30,15.08856127,0.0001481,53.2155,139.8686,91.2648,268.8514,0.00012944,1.774e-05,0.0,0 STARLINK-5466,1 54765U 22175H   24056.64966314  .00001774  00000-0  12944-3 0  9992,2 54765  53.2155 139.8686 0001481  91.2648 268.8514 15.08856127 65597,6917.831,95.437,540.721,538.672,0.0
54765.0,STARLINK-5466,PAYLOAD,2024-02-25 21:57:05,15.08828984,0.0002192,53.2156,138.679,94.3678,265.7565,-5.6332e-05,-1.184e-05,0.0,0 STARLINK-5466,1 54765U 22175H   24056.91464730 -.00001184  00000-0 -56332-4 0  9994,2 54765  53.2156 138.6790 0002192  94.3678 265.7565 15.08828984 67783,6917.914,95.438,541.295,538.263,0.0
54765.0,STARLINK-5466,PAYLOAD,2024-02-26 12:15:33,15.08836046,0.0001518,53.2165,136.0017,106.7984,253.3174,6.8576e-05,8.03e-06,0.0,0 STARLINK-5466,1 54765U 22175H   24057.51080228  .00000803  00000-0  68576-4 0  9995,2 54765  53.2165 136.0017 0001518 106.7984 253.3174 15.08836046 65725,6917.892,95.438,540.808,538.707,0.0
54765.0,STARLINK-5466,PAYLOAD,2024-02-27 10:30:57,15.08845089,0.0001522,53.2172,131.8425,105.9175,254.1985,6.8127e-06,-1.8e-06,0.0,0 STARLINK-5466,1 54765U 22175H   24058.43816160 -.00000180  00000-0  68127-5 0  9991,2 54765  53.2172 131.8425 0001522 105.9175 254.1985 15.08845089 68018,6917.865,95.437,540.783,538.677,0.0
54765.0,STARLINK-5466,PAYLOAD,2024-02-27 21:38:38,15.08849119,0.0001573,53.2175,129.7609,87.597,272.5202,-8.253e-06,-4.19e-06,0.0,0 STARLINK-5466,1 54765U 22175H   24058.90183892 -.00000419  00000-0 -82530-5 0  9992,2 54765  53.2175 129.7609 0001573  87.5970 272.5202 15.08849119 68086,6917.853,95.437,540.806,538.629,0.0
54765.0,STARLINK-5466,PAYLOAD,2024-02-28 11:57:08,15.08833795,0.0001698,53.2175,127.0817,101.7116,258.4067,5.4268e-05,5.76e-06,0.0,0 STARLINK-5466,1 54765U 22175H   24059.49801189  .00000576  00000-0  54268-4 0  9991,2 54765  53.2175 127.0817 0001698 101.7116 258.4067 15.08833795 66024,6917.899,95.438,540.939,538.59,0.0
54765.0,STARLINK-5466,PAYLOAD,2024-02-28 13:32:31,15.08833928,0.0001729,53.2176,126.7832,99.6088,260.51,5.8828e-05,6.48e-06,0.0,0 STARLINK-5466,1 54765U 22175H   24059.56425195  .00000648  00000-0  58828-4 0  9994,2 54765  53.2176 126.7832 0001729  99.6088 260.5100 15.08833928 68185,6917.899,95.438,540.96,538.568,0.0
54765.0,STARLINK-5466,PAYLOAD,2024-02-29 03:50:59,15.08842417,0.0001828,53.2174,124.1075,105.7713,254.3481,4.3448e-05,4.03e-06,0.0,0 STARLINK-5466,1 54765U 22175H   24060.16040781  .00000403  00000-0  43448-4 0  9997,2 54765  53.2174 124.1075 0001828 105.7713 254.3481 15.08842417 66126,6917.873,95.437,541.003,538.473,0.0
